STARLINK-1234
1 12345U 12345ABC  23156.12345678  .00000000  00000-0  00000+0 0  1234
2 12345  53.0000 123.4567 0001234 321.4567 123.4567 15.23456789 12345
